{"fetched_at":"2026-03-29T02:12:04Z","count":15717,"tles":[{"name":"COSMOS 2545 (760)","line1":"1 45358U 20018A   26085.16554035 -.00000028  00000+0  00000+0 0  9995","line2":"2 45358  64.4042 315.3386 0007474 246.9709 113.0018  2.13102438 46890","category":"Other"}]}